ONEWEB-0599             
1 55155U 23004R   26003.01562410  .00000361  00000+0  89771-3 0  9994
2 55155  87.9089  38.7052 0001587  90.3594 269.7720 13.17648492145738
ONEWEB-0614             
1 55156U 23004S   26003.20156311  .00001370  00000+0  38305-2 0  9992
2 55156  87.8827  53.9332 0002233 112.5801 247.5564 13.11413400144210
ONEWEB-0616             
1 55157U 23004T   26003.13374365  .00000065  00000+0  13429-3 0  9997
2 55157  87.9099  38.6753 0002054  66.8905 293.2443 13.17649230145962
ONEWEB-0617             
1 55158U 23004U   26003.18969088  .00000429  00000+0  11737-2 0  9998
2 55158  87.8835  53.9151 0001715 110.5093 249.6219 13.11419087144234
ONEWEB-0618             
1 55159U 23004V   26003.15459735  .00012456  00000+0  74037-3 0  9995
2 55159  86.9065 244.5610 0012607 175.6105 184.5247 15.11108627157325
ONEWEB-0619             
1 55160U 23004W   26003.08985341  .00000088  00000+0  19455-3 0  9997
2 55160  87.9098  38.6577 0002200  93.2704 266.8679 13.17647717145856
ONEWEB-0620             
1 55161U 23004X   26003.18459770  .00000255  00000+0  68293-3 0  9991
2 55161  87.8834  53.9356 0001560 105.6895 254.4405 13.11419268144206
ONEWEB-0621             
1 55162U 23004Y   26003.21173420  .00000349  00000+0  94787-3 0  9992
2 55162  87.8839  53.9032 0001932 100.9854 259.1491 13.11415140144188
ONEWEB-0622             
1 55163U 23004Z   26003.14051988  .00000256  00000+0  68756-3 0  9993
2 55163  87.8827  53.9241 0002020 121.2479 238.8847 13.11414722144168
ONEWEB-0623             
1 55164U 23004AA  26003.08480894  .00000144  00000+0  33848-3 0  9999
2 55164  87.9089  38.7061 0002402 109.8777 250.2614 13.17649204145845
ONEWEB-0624             
1 55165U 23004AB  26003.27823719  .00000267  00000+0  70078-3 0  9990
2 55165  87.8916  23.3680 0001879  99.1305 261.0036 13.12922585146431
ONEWEB-0625             
1 55166U 23004AC  26003.15060384 -.00000112  00000+0 -32283-3 0  9996
2 55166  87.9086  38.6874 0001803  88.4617 271.6721 13.17648888145847
ONEWEB-0626             
1 55167U 23004AD  26003.14047846  .00000005  00000+0 -20631-4 0  9999
2 55167  87.9088  38.6900 0001256  97.5232 262.6042 13.17647396145845
ONEWEB-0627             
1 55168U 23004AE  26003.12868140  .00000045  00000+0  83822-4 0  9990
2 55168  87.9087  38.6925 0002113 109.2350 250.9010 13.17649644145840
ONEWEB-0628             
1 55169U 23004AF  26003.27533722  .00000472  00000+0  12754-2 0  9990
2 55169  87.8927  23.4013 0002414 101.4873 258.6526 13.12445708146401
ONEWEB-0629             
1 55170U 23004AG  26003.10421080  .00000129  00000+0  29902-3 0  9990
2 55170  87.9087  38.6945 0002107  92.0542 268.0831 13.17650153145848
ONEWEB-0631             
1 55171U 23004AH  26003.06974457 -.00000005  00000+0 -44396-4 0  9997
2 55171  87.9175   8.2196 0001319 104.3574 255.7705 13.18684283147919
