[{"OBJECT_NAME":"ONEWEB-0599","OBJECT_ID":"2023-004R","EPOCH":"2026-01-03T00:22:29.922240","MEAN_MOTION":13.17648492,"ECCENTRICITY":0.00015876,"INCLINATION":87.9089,"RA_OF_ASC_NODE":38.7052,"ARG_OF_PERICENTER":90.3594,"MEAN_ANOMALY":269.772,"EPHEMERIS_TYPE":0,"CLASSIFICATION_TYPE":"U","NORAD_CAT_ID":55155,"ELEMENT_SET_NO":999,"REV_AT_EPOCH":14573,"BSTAR":0.00089771166,"MEAN_MOTION_DOT":3.61e-6,"MEAN_MOTION_DDOT":0},{"OBJECT_NAME":"ONEWEB-0614","OBJECT_ID":"2023-004S","EPOCH":"2026-01-03T04:50:15.052704","MEAN_MOTION":13.114134,"ECCENTRICITY":0.00022332,"INCLINATION":87.8827,"RA_OF_ASC_NODE":53.9332,"ARG_OF_PERICENTER":112.5801,"MEAN_ANOMALY":247.5564,"EPHEMERIS_TYPE":0,"CLASSIFICATION_TYPE":"U","NORAD_CAT_ID":55156,"ELEMENT_SET_NO":999,"REV_AT_EPOCH":14421,"BSTAR":0.0038305383,"MEAN_MOTION_DOT":1.37e-5,"MEAN_MOTION_DDOT":0},{"OBJECT_NAME":"ONEWEB-0616","OBJECT_ID":"2023-004T","EPOCH":"2026-01-03T03:12:35.451360","MEAN_MOTION":13.1764923,"ECCENTRICITY":0.00020549,"INCLINATION":87.9099,"RA_OF_ASC_NODE":38.6753,"ARG_OF_PERICENTER":66.8905,"MEAN_ANOMALY":293.2443,"EPHEMERIS_TYPE":0,"CLASSIFICATION_TYPE":"U","NORAD_CAT_ID":55157,"ELEMENT_SET_NO":999,"REV_AT_EPOCH":14596,"BSTAR":0.00013428899,"MEAN_MOTION_DOT":6.5e-7,"MEAN_MOTION_DDOT":0},{"OBJECT_NAME":"ONEWEB-0617","OBJECT_ID":"2023-004U","EPOCH":"2026-01-03T04:33:09.292032","MEAN_MOTION":13.11419087,"ECCENTRICITY":0.00017159,"INCLINATION":87.8835,"RA_OF_ASC_NODE":53.9151,"ARG_OF_PERICENTER":110.5093,"MEAN_ANOMALY":249.6219,"EPHEMERIS_TYPE":0,"CLASSIFICATION_TYPE":"U","NORAD_CAT_ID":55158,"ELEMENT_SET_NO":999,"REV_AT_EPOCH":14423,"BSTAR":0.0011737341,"MEAN_MOTION_DOT":4.29e-6,"MEAN_MOTION_DDOT":0},{"OBJECT_NAME":"ONEWEB-0618","OBJECT_ID":"2023-004V","EPOCH":"2026-01-03T03:42:37.211040","MEAN_MOTION":15.11108627,"ECCENTRICITY":0.00126078,"INCLINATION":86.9065,"RA_OF_ASC_NODE":244.561,"ARG_OF_PERICENTER":175.6105,"MEAN_ANOMALY":184.5247,"EPHEMERIS_TYPE":0,"CLASSIFICATION_TYPE":"U","NORAD_CAT_ID":55159,"ELEMENT_SET_NO":999,"REV_AT_EPOCH":15732,"BSTAR":0.00074037037,"MEAN_MOTION_DOT":0.00012456,"MEAN_MOTION_DDOT":0},{"OBJECT_NAME":"ONEWEB-0619","OBJECT_ID":"2023-004W","EPOCH":"2026-01-03T02:09:23.334624","MEAN_MOTION":13.17647717,"ECCENTRICITY":0.00022004,"INCLINATION":87.9098,"RA_OF_ASC_NODE":38.6577,"ARG_OF_PERICENTER":93.2704,"MEAN_ANOMALY":266.8679,"EPHEMERIS_TYPE":0,"CLASSIFICATION_TYPE":"U","NORAD_CAT_ID":55160,"ELEMENT_SET_NO":999,"REV_AT_EPOCH":14585,"BSTAR":0.00019455382,"MEAN_MOTION_DOT":8.8e-7,"MEAN_MOTION_DDOT":0},{"OBJECT_NAME":"ONEWEB-0620","OBJECT_ID":"2023-004X","EPOCH":"2026-01-03T04:25:49.241280","MEAN_MOTION":13.11419268,"ECCENTRICITY":0.000156,"INCLINATION":87.8834,"RA_OF_ASC_NODE":53.9356,"ARG_OF_PERICENTER":105.6895,"MEAN_ANOMALY":254.4405,"EPHEMERIS_TYPE":0,"CLASSIFICATION_TYPE":"U","NORAD_CAT_ID":55161,"ELEMENT_SET_NO":999,"REV_AT_EPOCH":14420,"BSTAR":0.00068293392,"MEAN_MOTION_DOT":2.55e-6,"MEAN_MOTION_DDOT":0},{"OBJECT_NAME":"ONEWEB-0621","OBJECT_ID":"2023-004Y","EPOCH":"2026-01-03T05:04:53.834880","MEAN_MOTION":13.1141514,"ECCENTRICITY":0.0001932,"INCLINATION":87.8839,"RA_OF_ASC_NODE":53.9032,"ARG_OF_PERICENTER":100.9854,"MEAN_ANOMALY":259.1491,"EPHEMERIS_TYPE":0,"CLASSIFICATION_TYPE":"U","NORAD_CAT_ID":55162,"ELEMENT_SET_NO":999,"REV_AT_EPOCH":14418,"BSTAR":0.00094787136,"MEAN_MOTION_DOT":3.49e-6,"MEAN_MOTION_DDOT":0},{"OBJECT_NAME":"ONEWEB-0622","OBJECT_ID":"2023-004Z","EPOCH":"2026-01-03T03:22:20.917632","MEAN_MOTION":13.11414722,"ECCENTRICITY":0.00020203,"INCLINATION":87.8827,"RA_OF_ASC_NODE":53.9241,"ARG_OF_PERICENTER":121.2479,"MEAN_ANOMALY":238.8847,"EPHEMERIS_TYPE":0,"CLASSIFICATION_TYPE":"U","NORAD_CAT_ID":55163,"ELEMENT_SET_NO":999,"REV_AT_EPOCH":14416,"BSTAR":0.00068755643,"MEAN_MOTION_DOT":2.56e-6,"MEAN_MOTION_DDOT":0},{"OBJECT_NAME":"ONEWEB-0623","OBJECT_ID":"2023-004AA","EPOCH":"2026-01-03T02:02:07.492416","MEAN_MOTION":13.17649204,"ECCENTRICITY":0.00024021,"INCLINATION":87.9089,"RA_OF_ASC_NODE":38.7061,"ARG_OF_PERICENTER":109.8777,"MEAN_ANOMALY":250.2614,"EPHEMERIS_TYPE":0,"CLASSIFICATION_TYPE":"U","NORAD_CAT_ID":55164,"ELEMENT_SET_NO":999,"REV_AT_EPOCH":14584,"BSTAR":0.00033848144,"MEAN_MOTION_DOT":1.44e-6,"MEAN_MOTION_DDOT":0},{"OBJECT_NAME":"ONEWEB-0624","OBJECT_ID":"2023-004AB","EPOCH":"2026-01-03T06:40:39.693216","MEAN_MOTION":13.12922585,"ECCENTRICITY":0.00018791,"INCLINATION":87.8916,"RA_OF_ASC_NODE":23.368,"ARG_OF_PERICENTER":99.1305,"MEAN_ANOMALY":261.0036,"EPHEMERIS_TYPE":0,"CLASSIFICATION_TYPE":"U","NORAD_CAT_ID":55165,"ELEMENT_SET_NO":999,"REV_AT_EPOCH":14643,"BSTAR":0.00070078487,"MEAN_MOTION_DOT":2.67e-6,"MEAN_MOTION_DDOT":0},{"OBJECT_NAME":"ONEWEB-0625","OBJECT_ID":"2023-004AC","EPOCH":"2026-01-03T03:36:52.171776","MEAN_MOTION":13.17648888,"ECCENTRICITY":0.00018032,"INCLINATION":87.9086,"RA_OF_ASC_NODE":38.6874,"ARG_OF_PERICENTER":88.4617,"MEAN_ANOMALY":271.6721,"EPHEMERIS_TYPE":0,"CLASSIFICATION_TYPE":"U","NORAD_CAT_ID":55166,"ELEMENT_SET_NO":999,"REV_AT_EPOCH":14584,"BSTAR":-0.00032283172,"MEAN_MOTION_DOT":-1.12e-6,"MEAN_MOTION_DDOT":0},{"OBJECT_NAME":"ONEWEB-0626","OBJECT_ID":"2023-004AD","EPOCH":"2026-01-03T03:22:17.338944","MEAN_MOTION":13.17647396,"ECCENTRICITY":0.00012562,"INCLINATION":87.9088,"RA_OF_ASC_NODE":38.69,"ARG_OF_PERICENTER":97.5232,"MEAN_ANOMALY":262.6042,"EPHEMERIS_TYPE":0,"CLASSIFICATION_TYPE":"U","NORAD_CAT_ID":55167,"ELEMENT_SET_NO":999,"REV_AT_EPOCH":14584,"BSTAR":-2.0631198e-5,"MEAN_MOTION_DOT":5.0e-8,"MEAN_MOTION_DDOT":0},{"OBJECT_NAME":"ONEWEB-0627","OBJECT_ID":"2023-004AE","EPOCH":"2026-01-03T03:05:18.072960","MEAN_MOTION":13.17649644,"ECCENTRICITY":0.0002113,"INCLINATION":87.9087,"RA_OF_ASC_NODE":38.6925,"ARG_OF_PERICENTER":109.235,"MEAN_ANOMALY":250.901,"EPHEMERIS_TYPE":0,"CLASSIFICATION_TYPE":"U","NORAD_CAT_ID":55168,"ELEMENT_SET_NO":999,"REV_AT_EPOCH":14584,"BSTAR":8.3822127e-5,"MEAN_MOTION_DOT":4.5e-7,"MEAN_MOTION_DDOT":0},{"OBJECT_NAME":"ONEWEB-0628","OBJECT_ID":"2023-004AF","EPOCH":"2026-01-03T06:36:29.135808","MEAN_MOTION":13.12445708,"ECCENTRICITY":0.0002414,"INCLINATION":87.8927,"RA_OF_ASC_NODE":23.4013,"ARG_OF_PERICENTER":101.4873,"MEAN_ANOMALY":258.6526,"EPHEMERIS_TYPE":0,"CLASSIFICATION_TYPE":"U","NORAD_CAT_ID":55169,"ELEMENT_SET_NO":999,"REV_AT_EPOCH":14640,"BSTAR":0.0012753787,"MEAN_MOTION_DOT":4.72e-6,"MEAN_MOTION_DDOT":0},{"OBJECT_NAME":"ONEWEB-0629","OBJECT_ID":"2023-004AG","EPOCH":"2026-01-03T02:30:03.813120","MEAN_MOTION":13.17650153,"ECCENTRICITY":0.00021074,"INCLINATION":87.9087,"RA_OF_ASC_NODE":38.6945,"ARG_OF_PERICENTER":92.0542,"MEAN_ANOMALY":268.0831,"EPHEMERIS_TYPE":0,"CLASSIFICATION_TYPE":"U","NORAD_CAT_ID":55170,"ELEMENT_SET_NO":999,"REV_AT_EPOCH":14584,"BSTAR":0.00029901795,"MEAN_MOTION_DOT":1.29e-6,"MEAN_MOTION_DDOT":0},{"OBJECT_NAME":"ONEWEB-0631","OBJECT_ID":"2023-004AH","EPOCH":"2026-01-03T01:40:25.930848","MEAN_MOTION":13.18684283,"ECCENTRICITY":0.00013199,"INCLINATION":87.9175,"RA_OF_ASC_NODE":8.2196,"ARG_OF_PERICENTER":104.3574,"MEAN_ANOMALY":255.7705,"EPHEMERIS_TYPE":0,"CLASSIFICATION_TYPE":"U","NORAD_CAT_ID":55171,"ELEMENT_SET_NO":999,"REV_AT_EPOCH":14791,"BSTAR":-4.4396476e-5,"MEAN_MOTION_DOT":-5.0e-8,"MEAN_MOTION_DDOT":0}]
